[{"OBJECT_NAME":"SL-8 R/B","OBJECT_ID":"1979-089B","EPOCH":"2026-04-03T05:30:07.822944","MEAN_MOTION":14.42368176,"ECCENTRICITY":0.00165788,"INCLINATION":74.0699,"RA_OF_ASC_NODE":45.6146,"ARG_OF_PERICENTER":214.9897,"MEAN_ANOMALY":145.0171,"EPHEMERIS_TYPE":0,"CLASSIFICATION_TYPE":"U","NORAD_CAT_ID":11574,"ELEMENT_SET_NO":999,"REV_AT_EPOCH":43964,"BSTAR":0.00017053897,"MEAN_MOTION_DOT":5.38e-6,"MEAN_MOTION_DDOT":0},{"OBJECT_NAME":"SL-14 R/B","OBJECT_ID":"1980-005B","EPOCH":"2026-04-03T05:22:37.158816","MEAN_MOTION":14.90961007,"ECCENTRICITY":0.00172295,"INCLINATION":82.5108,"RA_OF_ASC_NODE":283.9567,"ARG_OF_PERICENTER":82.4901,"MEAN_ANOMALY":277.8275,"EPHEMERIS_TYPE":0,"CLASSIFICATION_TYPE":"U","NORAD_CAT_ID":11672,"ELEMENT_SET_NO":999,"REV_AT_EPOCH":48014,"BSTAR":9.4714217e-5,"MEAN_MOTION_DOT":9.63e-6,"MEAN_MOTION_DDOT":0},{"OBJECT_NAME":"SL-8 R/B","OBJECT_ID":"1981-003B","EPOCH":"2026-04-02T23:11:20.483520","MEAN_MOTION":15.12098954,"ECCENTRICITY":0.02601319,"INCLINATION":82.933,"RA_OF_ASC_NODE":267.5546,"ARG_OF_PERICENTER":94.2915,"MEAN_ANOMALY":268.8086,"EPHEMERIS_TYPE":0,"CLASSIFICATION_TYPE":"U","NORAD_CAT_ID":12139,"ELEMENT_SET_NO":999,"REV_AT_EPOCH":31834,"BSTAR":0.0008309089,"MEAN_MOTION_DOT":0.00033381,"MEAN_MOTION_DDOT":0},{"OBJECT_NAME":"SL-3 R/B","OBJECT_ID":"1981-046B","EPOCH":"2026-04-03T05:51:05.115744","MEAN_MOTION":15.42629781,"ECCENTRICITY":0.00180876,"INCLINATION":81.2286,"RA_OF_ASC_NODE":260.2399,"ARG_OF_PERICENTER":294.8821,"MEAN_ANOMALY":65.0541,"EPHEMERIS_TYPE":0,"CLASSIFICATION_TYPE":"U","NORAD_CAT_ID":12465,"ELEMENT_SET_NO":999,"REV_AT_EPOCH":44221,"BSTAR":0.00044650093,"MEAN_MOTION_DOT":0.00019599,"MEAN_MOTION_DDOT":0},{"OBJECT_NAME":"SL-3 R/B","OBJECT_ID":"1981-103B","EPOCH":"2026-04-03T05:40:37.380000","MEAN_MOTION":15.21680639,"ECCENTRICITY":0.00130679,"INCLINATION":81.1614,"RA_OF_ASC_NODE":184.6368,"ARG_OF_PERICENTER":199.6247,"MEAN_ANOMALY":160.4483,"EPHEMERIS_TYPE":0,"CLASSIFICATION_TYPE":"U","NORAD_CAT_ID":12904,"ELEMENT_SET_NO":999,"REV_AT_EPOCH":97696,"BSTAR":0.00036587175,"MEAN_MOTION_DOT":8.319e-5,"MEAN_MOTION_DDOT":0},{"OBJECT_NAME":"SL-3 R/B","OBJECT_ID":"1982-013B","EPOCH":"2026-04-03T05:38:14.527104","MEAN_MOTION":15.22244495,"ECCENTRICITY":0.00235427,"INCLINATION":81.1724,"RA_OF_ASC_NODE":131.9975,"ARG_OF_PERICENTER":97.3685,"MEAN_ANOMALY":263.0224,"EPHEMERIS_TYPE":0,"CLASSIFICATION_TYPE":"U","NORAD_CAT_ID":13068,"ELEMENT_SET_NO":999,"REV_AT_EPOCH":40808,"BSTAR":0.00029020819,"MEAN_MOTION_DOT":6.75e-5,"MEAN_MOTION_DDOT":0},{"OBJECT_NAME":"SL-3 R/B","OBJECT_ID":"1982-039B","EPOCH":"2026-04-03T05:43:58.075104","MEAN_MOTION":15.10227483,"ECCENTRICITY":0.00282526,"INCLINATION":81.1562,"RA_OF_ASC_NODE":187.6539,"ARG_OF_PERICENTER":242.7451,"MEAN_ANOMALY":117.0896,"EPHEMERIS_TYPE":0,"CLASSIFICATION_TYPE":"U","NORAD_CAT_ID":13154,"ELEMENT_SET_NO":999,"REV_AT_EPOCH":38534,"BSTAR":0.00028617954,"MEAN_MOTION_DOT":4.744e-5,"MEAN_MOTION_DDOT":0},{"OBJECT_NAME":"SL-3 R/B","OBJECT_ID":"1982-079B","EPOCH":"2026-04-03T04:58:20.699328","MEAN_MOTION":15.25133748,"ECCENTRICITY":0.00254891,"INCLINATION":81.1476,"RA_OF_ASC_NODE":164.1267,"ARG_OF_PERICENTER":84.4175,"MEAN_ANOMALY":275.9964,"EPHEMERIS_TYPE":0,"CLASSIFICATION_TYPE":"U","NORAD_CAT_ID":13403,"ELEMENT_SET_NO":999,"REV_AT_EPOCH":38143,"BSTAR":0.00039906611,"MEAN_MOTION_DOT":0.00010119,"MEAN_MOTION_DDOT":0},{"OBJECT_NAME":"SL-14 R/B","OBJECT_ID":"1982-092B","EPOCH":"2026-04-03T03:25:54.668640","MEAN_MOTION":14.86689663,"ECCENTRICITY":0.00193644,"INCLINATION":82.5651,"RA_OF_ASC_NODE":118.5222,"ARG_OF_PERICENTER":216.4419,"MEAN_ANOMALY":205.471,"EPHEMERIS_TYPE":0,"CLASSIFICATION_TYPE":"U","NORAD_CAT_ID":13553,"ELEMENT_SET_NO":999,"REV_AT_EPOCH":33256,"BSTAR":6.9621718e-5,"MEAN_MOTION_DOT":6.45e-6,"MEAN_MOTION_DDOT":0},{"OBJECT_NAME":"SL-3 R/B","OBJECT_ID":"1983-010B","EPOCH":"2026-04-03T03:35:20.695776","MEAN_MOTION":15.47202124,"ECCENTRICITY":0.00155127,"INCLINATION":81.1037,"RA_OF_ASC_NODE":332.2436,"ARG_OF_PERICENTER":326.1404,"MEAN_ANOMALY":33.8849,"EPHEMERIS_TYPE":0,"CLASSIFICATION_TYPE":"U","NORAD_CAT_ID":13819,"ELEMENT_SET_NO":999,"REV_AT_EPOCH":36172,"BSTAR":0.00047283518,"MEAN_MOTION_DOT":0.00024213,"MEAN_MOTION_DDOT":0},{"OBJECT_NAME":"SL-3 R/B","OBJECT_ID":"1983-075B","EPOCH":"2026-04-03T06:27:31.564512","MEAN_MOTION":15.39027675,"ECCENTRICITY":0.00227545,"INCLINATION":97.6133,"RA_OF_ASC_NODE":98.7881,"ARG_OF_PERICENTER":138.1129,"MEAN_ANOMALY":222.1862,"EPHEMERIS_TYPE":0,"CLASSIFICATION_TYPE":"U","NORAD_CAT_ID":14208,"ELEMENT_SET_NO":999,"REV_AT_EPOCH":33393,"BSTAR":0.00047786834,"MEAN_MOTION_DOT":0.00018568,"MEAN_MOTION_DDOT":0},{"OBJECT_NAME":"COSMOS 1536","OBJECT_ID":"1984-013A","EPOCH":"2026-04-03T05:03:36.967392","MEAN_MOTION":15.24181426,"ECCENTRICITY":0.00139377,"INCLINATION":82.5418,"RA_OF_ASC_NODE":83.4616,"ARG_OF_PERICENTER":188.2407,"MEAN_ANOMALY":171.8604,"EPHEMERIS_TYPE":0,"CLASSIFICATION_TYPE":"U","NORAD_CAT_ID":14699,"ELEMENT_SET_NO":999,"REV_AT_EPOCH":27635,"BSTAR":0.00046845544,"MEAN_MOTION_DOT":0.00011472,"MEAN_MOTION_DDOT":0},{"OBJECT_NAME":"SL-14 R/B","OBJECT_ID":"1984-027B","EPOCH":"2026-04-02T20:48:35.988480","MEAN_MOTION":14.86004267,"ECCENTRICITY":0.00165676,"INCLINATION":82.5425,"RA_OF_ASC_NODE":222.3364,"ARG_OF_PERICENTER":251.9206,"MEAN_ANOMALY":108.0206,"EPHEMERIS_TYPE":0,"CLASSIFICATION_TYPE":"U","NORAD_CAT_ID":14820,"ELEMENT_SET_NO":999,"REV_AT_EPOCH":25122,"BSTAR":9.1308263e-5,"MEAN_MOTION_DOT":8.23e-6,"MEAN_MOTION_DDOT":0},{"OBJECT_NAME":"SL-8 R/B","OBJECT_ID":"1985-006B","EPOCH":"2026-04-03T06:45:17.484768","MEAN_MOTION":14.37801988,"ECCENTRICITY":0.00174911,"INCLINATION":74.046,"RA_OF_ASC_NODE":215.8954,"ARG_OF_PERICENTER":126.3495,"MEAN_ANOMALY":255.8319,"EPHEMERIS_TYPE":0,"CLASSIFICATION_TYPE":"U","NORAD_CAT_ID":15483,"ELEMENT_SET_NO":999,"REV_AT_EPOCH":15756,"BSTAR":0.00016539902,"MEAN_MOTION_DOT":4.73e-6,"MEAN_MOTION_DDOT":0},{"OBJECT_NAME":"SL-12 R/B(2)","OBJECT_ID":"1985-042D","EPOCH":"2026-04-03T06:04:45.067296","MEAN_MOTION":14.21989969,"ECCENTRICITY":0.00328329,"INCLINATION":71.1098,"RA_OF_ASC_NODE":35.8305,"ARG_OF_PERICENTER":87.3386,"MEAN_ANOMALY":17.3739,"EPHEMERIS_TYPE":0,"CLASSIFICATION_TYPE":"U","NORAD_CAT_ID":15772,"ELEMENT_SET_NO":999,"REV_AT_EPOCH":11788,"BSTAR":0.00012875313,"MEAN_MOTION_DOT":2.39e-6,"MEAN_MOTION_DDOT":0},{"OBJECT_NAME":"SL-14 R/B","OBJECT_ID":"1985-069B","EPOCH":"2026-04-03T04:20:44.915424","MEAN_MOTION":14.86461269,"ECCENTRICITY":0.00202841,"INCLINATION":82.5305,"RA_OF_ASC_NODE":1.9101,"ARG_OF_PERICENTER":109.6187,"MEAN_ANOMALY":250.7222,"EPHEMERIS_TYPE":0,"CLASSIFICATION_TYPE":"U","NORAD_CAT_ID":15945,"ELEMENT_SET_NO":999,"REV_AT_EPOCH":17647,"BSTAR":8.599474e-5,"MEAN_MOTION_DOT":7.87e-6,"MEAN_MOTION_DDOT":0},{"OBJECT_NAME":"SL-16 R/B","OBJECT_ID":"1985-097B","EPOCH":"2026-04-03T06:48:27.347040","MEAN_MOTION":14.16602843,"ECCENTRICITY":0.00092624,"INCLINATION":71.0008,"RA_OF_ASC_NODE":88.7738,"ARG_OF_PERICENTER":230.5472,"MEAN_ANOMALY":222.7252,"EPHEMERIS_TYPE":0,"CLASSIFICATION_TYPE":"U","NORAD_CAT_ID":16182,"ELEMENT_SET_NO":999,"REV_AT_EPOCH":9071,"BSTAR":-5.7359389e-5,"MEAN_MOTION_DOT":-1.62e-6,"MEAN_MOTION_DDOT":0}]
