SL-8 R/B                
1 11574U 79089B   26093.22925721  .00000538  00000+0  17054-3 0  9996
2 11574  74.0699  45.6146 0016578 214.9897 145.0171 14.42368176439645
SL-14 R/B               
1 11672U 80005B   26093.22404119  .00000963  00000+0  94714-4 0  9999
2 11672  82.5108 283.9567 0017229  82.4901 277.8275 14.90961007480140
SL-8 R/B                
1 12139U 81003B   26092.96620930  .00033381  00000+0  83091-3 0  9993
2 12139  82.9330 267.5546 0260131  94.2915 268.8086 15.12098954318342
SL-3 R/B                
1 12465U 81046B   26093.24380921  .00019599  00000+0  44650-3 0  9990
2 12465  81.2286 260.2399 0018087 294.8821  65.0541 15.42629781442215
SL-3 R/B                
1 12904U 81103B   26093.23654375  .00008319  00000+0  36587-3 0  9996
2 12904  81.1614 184.6368 0013067 199.6247 160.4483 15.21680639976964
SL-3 R/B                
1 13068U 82013B   26093.23489036  .00006750  00000+0  29021-3 0  9991
2 13068  81.1724 131.9975 0023542  97.3685 263.0224 15.22244495408089
SL-3 R/B                
1 13154U 82039B   26093.23886661  .00004744  00000+0  28618-3 0  9992
2 13154  81.1562 187.6539 0028252 242.7451 117.0896 15.10227483385340
SL-3 R/B                
1 13403U 82079B   26093.20718402  .00010119  00000+0  39907-3 0  9993
2 13403  81.1476 164.1267 0025489  84.4175 275.9964 15.25133748381434
SL-14 R/B               
1 13553U 82092B   26093.14299385  .00000645  00000+0  69622-4 0  9992
2 13553  82.5651 118.5222 0019364 216.4419 205.4710 14.86689663332562
SL-3 R/B                
1 13819U 83010B   26093.14954509  .00024213  00000+0  47284-3 0  9990
2 13819  81.1037 332.2436 0015512 326.1404  33.8849 15.47202124361723
SL-3 R/B                
1 14208U 83075B   26093.26911533  .00018568  00000+0  47787-3 0  9991
2 14208  97.6133  98.7881 0022754 138.1129 222.1862 15.39027675333931
COSMOS 1536             
1 14699U 84013A   26093.21084453  .00011472  00000+0  46846-3 0  9997
2 14699  82.5418  83.4616 0013937 188.2407 171.8604 15.24181426276354
SL-14 R/B               
1 14820U 84027B   26092.86708320  .00000823  00000+0  91308-4 0  9996
2 14820  82.5425 222.3364 0016567 251.9206 108.0206 14.86004267251222
SL-8 R/B                
1 15483U 85006B   26093.28145237  .00000473  00000+0  16540-3 0  9994
2 15483  74.0460 215.8954 0017491 126.3495 255.8319 14.37801988157566
SL-12 R/B(2)            
1 15772U 85042D   26093.25329939  .00000239  00000+0  12875-3 0  9992
2 15772  71.1098  35.8305 0032832  87.3386  17.3739 14.21989969117880
SL-14 R/B               
1 15945U 85069B   26093.18107541  .00000787  00000+0  85995-4 0  9990
2 15945  82.5305   1.9101 0020284 109.6187 250.7222 14.86461269176471
SL-16 R/B               
1 16182U 85097B   26093.28364985 -.00000162  00000+0 -57359-4 0  9995
2 16182  71.0008  88.7738 0009262 230.5472 222.7252 14.16602843 90713
